[{"OBJECT_NAME":"STARLINK-35654","OBJECT_ID":"2025-262AD","EPOCH":"2026-03-23T18:36:50.603616","MEAN_MOTION":15.27614519,"ECCENTRICITY":0.00017928,"INCLINATION":43.0001,"RA_OF_ASC_NODE":216.3551,"ARG_OF_PERICENTER":257.7119,"MEAN_ANOMALY":102.3532,"EPHEMERIS_TYPE":0,"CLASSIFICATION_TYPE":"U","NORAD_CAT_ID":66483,"ELEMENT_SET_NO":999,"REV_AT_EPOCH":2106,"BSTAR":0.00084630544,"MEAN_MOTION_DOT":0.00023124,"MEAN_MOTION_DDOT":0},{"OBJECT_NAME":"STARLINK-35371","OBJECT_ID":"2025-262AE","EPOCH":"2026-03-24T02:07:28.834752","MEAN_MOTION":15.27601633,"ECCENTRICITY":0.00022981,"INCLINATION":43.0064,"RA_OF_ASC_NODE":215.2689,"ARG_OF_PERICENTER":270.8526,"MEAN_ANOMALY":89.2063,"EPHEMERIS_TYPE":0,"CLASSIFICATION_TYPE":"U","NORAD_CAT_ID":66484,"ELEMENT_SET_NO":999,"REV_AT_EPOCH":2110,"BSTAR":0.00043580657,"MEAN_MOTION_DOT":0.00011757,"MEAN_MOTION_DDOT":0},{"OBJECT_NAME":"STARLINK-34774","OBJECT_ID":"2025-263A","EPOCH":"2026-03-24T05:09:32.884416","MEAN_MOTION":15.27591574,"ECCENTRICITY":0.00017787,"INCLINATION":43.0005,"RA_OF_ASC_NODE":268.3885,"ARG_OF_PERICENTER":257.1836,"MEAN_ANOMALY":102.8817,"EPHEMERIS_TYPE":0,"CLASSIFICATION_TYPE":"U","NORAD_CAT_ID":66485,"ELEMENT_SET_NO":999,"REV_AT_EPOCH":2112,"BSTAR":0.00072656371,"MEAN_MOTION_DOT":0.00019792,"MEAN_MOTION_DDOT":0},{"OBJECT_NAME":"STARLINK-34844","OBJECT_ID":"2025-263B","EPOCH":"2026-03-23T21:16:53.554080","MEAN_MOTION":15.27624457,"ECCENTRICITY":0.00011421,"INCLINATION":43.0004,"RA_OF_ASC_NODE":270.2197,"ARG_OF_PERICENTER":311.1309,"MEAN_ANOMALY":48.9444,"EPHEMERIS_TYPE":0,"CLASSIFICATION_TYPE":"U","NORAD_CAT_ID":66486,"ELEMENT_SET_NO":999,"REV_AT_EPOCH":2102,"BSTAR":0.00070766952,"MEAN_MOTION_DOT":0.00019289,"MEAN_MOTION_DDOT":0},{"OBJECT_NAME":"STARLINK-34733","OBJECT_ID":"2025-263C","EPOCH":"2026-03-23T19:39:03.298752","MEAN_MOTION":15.2758618,"ECCENTRICITY":0.00010569,"INCLINATION":42.9988,"RA_OF_ASC_NODE":270.5711,"ARG_OF_PERICENTER":255.7377,"MEAN_ANOMALY":104.3357,"EPHEMERIS_TYPE":0,"CLASSIFICATION_TYPE":"U","NORAD_CAT_ID":66487,"ELEMENT_SET_NO":999,"REV_AT_EPOCH":2106,"BSTAR":0.00056411616,"MEAN_MOTION_DOT":0.00015296,"MEAN_MOTION_DDOT":0},{"OBJECT_NAME":"STARLINK-35515","OBJECT_ID":"2025-263D","EPOCH":"2026-03-24T05:20:38.885856","MEAN_MOTION":15.27589254,"ECCENTRICITY":0.00018363,"INCLINATION":43.0019,"RA_OF_ASC_NODE":268.439,"ARG_OF_PERICENTER":254.4967,"MEAN_ANOMALY":105.5682,"EPHEMERIS_TYPE":0,"CLASSIFICATION_TYPE":"U","NORAD_CAT_ID":66488,"ELEMENT_SET_NO":999,"REV_AT_EPOCH":2112,"BSTAR":0.00060635491,"MEAN_MOTION_DOT":0.00016466,"MEAN_MOTION_DDOT":0},{"OBJECT_NAME":"STARLINK-35696","OBJECT_ID":"2025-263E","EPOCH":"2026-03-23T12:23:26.045952","MEAN_MOTION":15.27566533,"ECCENTRICITY":0.00016983,"INCLINATION":43.0033,"RA_OF_ASC_NODE":272.6005,"ARG_OF_PERICENTER":255.1553,"MEAN_ANOMALY":104.911,"EPHEMERIS_TYPE":0,"CLASSIFICATION_TYPE":"U","NORAD_CAT_ID":66489,"ELEMENT_SET_NO":999,"REV_AT_EPOCH":2101,"BSTAR":0.00075804817,"MEAN_MOTION_DOT":0.00020648,"MEAN_MOTION_DDOT":0},{"OBJECT_NAME":"STARLINK-35693","OBJECT_ID":"2025-263F","EPOCH":"2026-03-24T05:13:14.576448","MEAN_MOTION":15.27602849,"ECCENTRICITY":0.00021087,"INCLINATION":43.0008,"RA_OF_ASC_NODE":268.4048,"ARG_OF_PERICENTER":258.4131,"MEAN_ANOMALY":101.6484,"EPHEMERIS_TYPE":0,"CLASSIFICATION_TYPE":"U","NORAD_CAT_ID":66490,"ELEMENT_SET_NO":999,"REV_AT_EPOCH":2112,"BSTAR":0.00099208457,"MEAN_MOTION_DOT":0.00027158,"MEAN_MOTION_DDOT":0},{"OBJECT_NAME":"STARLINK-35663","OBJECT_ID":"2025-263G","EPOCH":"2026-03-23T20:27:10.276128","MEAN_MOTION":15.27584484,"ECCENTRICITY":0.00016358,"INCLINATION":43.0011,"RA_OF_ASC_NODE":270.8156,"ARG_OF_PERICENTER":285.4201,"MEAN_ANOMALY":74.647,"EPHEMERIS_TYPE":0,"CLASSIFICATION_TYPE":"U","NORAD_CAT_ID":66491,"ELEMENT_SET_NO":999,"REV_AT_EPOCH":2106,"BSTAR":0.00072861839,"MEAN_MOTION_DOT":0.00019845,"MEAN_MOTION_DDOT":0},{"OBJECT_NAME":"STARLINK-35673","OBJECT_ID":"2025-263H","EPOCH":"2026-03-24T05:35:28.052448","MEAN_MOTION":15.27574694,"ECCENTRICITY":0.00016286,"INCLINATION":43.0043,"RA_OF_ASC_NODE":268.5223,"ARG_OF_PERICENTER":256.6914,"MEAN_ANOMALY":103.3757,"EPHEMERIS_TYPE":0,"CLASSIFICATION_TYPE":"U","NORAD_CAT_ID":66492,"ELEMENT_SET_NO":999,"REV_AT_EPOCH":2112,"BSTAR":0.00099322707,"MEAN_MOTION_DOT":0.00027166,"MEAN_MOTION_DDOT":0},{"OBJECT_NAME":"STARLINK-35597","OBJECT_ID":"2025-263J","EPOCH":"2026-03-23T20:45:38.744928","MEAN_MOTION":15.27600957,"ECCENTRICITY":0.00016796,"INCLINATION":42.9992,"RA_OF_ASC_NODE":270.9179,"ARG_OF_PERICENTER":275.653,"MEAN_ANOMALY":84.413,"EPHEMERIS_TYPE":0,"CLASSIFICATION_TYPE":"U","NORAD_CAT_ID":66493,"ELEMENT_SET_NO":999,"REV_AT_EPOCH":2106,"BSTAR":0.0011466018,"MEAN_MOTION_DOT":0.00031445,"MEAN_MOTION_DDOT":0},{"OBJECT_NAME":"STARLINK-35689","OBJECT_ID":"2025-263K","EPOCH":"2026-03-24T04:47:33.952992","MEAN_MOTION":15.2759293,"ECCENTRICITY":0.00014898,"INCLINATION":42.9976,"RA_OF_ASC_NODE":269.133,"ARG_OF_PERICENTER":292.549,"MEAN_ANOMALY":67.5203,"EPHEMERIS_TYPE":0,"CLASSIFICATION_TYPE":"U","NORAD_CAT_ID":66494,"ELEMENT_SET_NO":999,"REV_AT_EPOCH":2111,"BSTAR":0.00084490335,"MEAN_MOTION_DOT":0.0002307,"MEAN_MOTION_DDOT":0},{"OBJECT_NAME":"STARLINK-35832","OBJECT_ID":"2025-263L","EPOCH":"2026-03-24T05:29:54.525120","MEAN_MOTION":15.27586013,"ECCENTRICITY":6.083e-5,"INCLINATION":42.9993,"RA_OF_ASC_NODE":268.4893,"ARG_OF_PERICENTER":334.2569,"MEAN_ANOMALY":25.8252,"EPHEMERIS_TYPE":0,"CLASSIFICATION_TYPE":"U","NORAD_CAT_ID":66495,"ELEMENT_SET_NO":999,"REV_AT_EPOCH":2112,"BSTAR":0.00062573365,"MEAN_MOTION_DOT":0.00017,"MEAN_MOTION_DDOT":0},{"OBJECT_NAME":"STARLINK-35909","OBJECT_ID":"2025-263M","EPOCH":"2026-03-23T22:12:25.692768","MEAN_MOTION":15.27578901,"ECCENTRICITY":0.00017649,"INCLINATION":43.0001,"RA_OF_ASC_NODE":270.5054,"ARG_OF_PERICENTER":252.9725,"MEAN_ANOMALY":107.0934,"EPHEMERIS_TYPE":0,"CLASSIFICATION_TYPE":"U","NORAD_CAT_ID":66496,"ELEMENT_SET_NO":999,"REV_AT_EPOCH":2107,"BSTAR":0.00069424581,"MEAN_MOTION_DOT":0.00018891,"MEAN_MOTION_DDOT":0},{"OBJECT_NAME":"STARLINK-35899","OBJECT_ID":"2025-263N","EPOCH":"2026-03-24T05:15:05.570208","MEAN_MOTION":15.27592524,"ECCENTRICITY":0.00017791,"INCLINATION":42.9996,"RA_OF_ASC_NODE":268.4061,"ARG_OF_PERICENTER":258.4708,"MEAN_ANOMALY":101.5944,"EPHEMERIS_TYPE":0,"CLASSIFICATION_TYPE":"U","NORAD_CAT_ID":66497,"ELEMENT_SET_NO":999,"REV_AT_EPOCH":2112,"BSTAR":0.00082679611,"MEAN_MOTION_DOT":0.00022568,"MEAN_MOTION_DDOT":0},{"OBJECT_NAME":"STARLINK-35907","OBJECT_ID":"2025-263P","EPOCH":"2026-03-23T22:10:34.930560","MEAN_MOTION":15.27583058,"ECCENTRICITY":0.00018047,"INCLINATION":43.0005,"RA_OF_ASC_NODE":270.5047,"ARG_OF_PERICENTER":279.8343,"MEAN_ANOMALY":80.2305,"EPHEMERIS_TYPE":0,"CLASSIFICATION_TYPE":"U","NORAD_CAT_ID":66498,"ELEMENT_SET_NO":999,"REV_AT_EPOCH":2107,"BSTAR":0.00072258811,"MEAN_MOTION_DOT":0.00019677,"MEAN_MOTION_DDOT":0}]
