STARLINK-35654          
1 66483U 25262AD  26082.77558569  .00023124  00000+0  84631-3 0  9990
2 66483  43.0001 216.3551 0001792 257.7119 102.3532 15.27614519 21067
STARLINK-35371          
1 66484U 25262AE  26083.08852818  .00011757  00000+0  43581-3 0  9998
2 66484  43.0064 215.2689 0002298 270.8526  89.2063 15.27601633 21107
STARLINK-34774          
1 66485U 25263A   26083.21496394  .00019792  00000+0  72656-3 0  9990
2 66485  43.0005 268.3885 0001778 257.1836 102.8817 15.27591574 21127
STARLINK-34844          
1 66486U 25263B   26082.88673095  .00019289  00000+0  70767-3 0  9990
2 66486  43.0004 270.2197 0001142 311.1309  48.9444 15.27624457 21028
STARLINK-34733          
1 66487U 25263C   26082.81878818  .00015296  00000+0  56412-3 0  9999
2 66487  42.9988 270.5711 0001056 255.7377 104.3357 15.27586180 21069
STARLINK-35515          
1 66488U 25263D   26083.22267229  .00016466  00000+0  60635-3 0  9996
2 66488  43.0019 268.4390 0001836 254.4967 105.5682 15.27589254 21129
STARLINK-35696          
1 66489U 25263E   26082.51627368  .00020648  00000+0  75805-3 0  9994
2 66489  43.0033 272.6005 0001698 255.1553 104.9110 15.27566533 21013
STARLINK-35693          
1 66490U 25263F   26083.21752982  .00027158  00000+0  99208-3 0  9991
2 66490  43.0008 268.4048 0002108 258.4131 101.6484 15.27602849 21123
STARLINK-35663          
1 66491U 25263G   26082.85220227  .00019845  00000+0  72862-3 0  9994
2 66491  43.0011 270.8156 0001635 285.4201  74.6470 15.27584484 21068
STARLINK-35673          
1 66492U 25263H   26083.23296357  .00027166  00000+0  99323-3 0  9991
2 66492  43.0043 268.5223 0001628 256.6914 103.3757 15.27574694 21123
STARLINK-35597          
1 66493U 25263J   26082.86503177  .00031445  00000+0  11466-2 0  9997
2 66493  42.9992 270.9179 0001679 275.6530  84.4130 15.27600957 21062
STARLINK-35689          
1 66494U 25263K   26083.19969853  .00023070  00000+0  84490-3 0  9995
2 66494  42.9976 269.1330 0001489 292.5490  67.5203 15.27592930 21116
STARLINK-35832          
1 66495U 25263L   26083.22910330  .00017000  00000+0  62573-3 0  9990
2 66495  42.9993 268.4893 0000608 334.2569  25.8252 15.27586013 21122
STARLINK-35909          
1 66496U 25263M   26082.92529737  .00018891  00000+0  69425-3 0  9996
2 66496  43.0001 270.5054 0001764 252.9725 107.0934 15.27578901 21073
STARLINK-35899          
1 66497U 25263N   26083.21881447  .00022568  00000+0  82680-3 0  9993
2 66497  42.9996 268.4061 0001779 258.4708 101.5944 15.27592524 21120
STARLINK-35907          
1 66498U 25263P   26082.92401540  .00019677  00000+0  72259-3 0  9991
2 66498  43.0005 270.5047 0001804 279.8343  80.2305 15.27583058 21073
